{"type": "FeatureCollection", "features": [ {"type": "Feature", "properties": {"norad_id": 66649, "name": "COSMOS 2599 (RODNIK-S 24)", "group": "last-30-days", "lat": -44.44539180701738, "lon": -80.98280218454849, "alt_km": 1504.261743246172, "timestamp": "2025-12-12T18:57:42.886428+00:00", "meta": {"OBJECT_NAME": "COSMOS 2599 (RODNIK-S 24)", "OBJECT_ID": "2025-273C", "EPOCH": "2025-12-12T05:39:39.397824", "MEAN_MOTION": 12.41150084, "ECCENTRICITY": 0.00063321, "INCLINATION": 82.5043, "RA_OF_ASC_NODE": 286.7793, "ARG_OF_PERICENTER": 280.36, "MEAN_ANOMALY": 79.6765, "EPHEMERIS_TYPE": 0, "CLASSIFICATION_TYPE": "U", "NORAD_CAT_ID": 66649, "ELEMENT_SET_NO": 999, "REV_AT_EPOCH": 207, "BSTAR": 0.0005542127, "MEAN_MOTION_DOT": 8.5e-07, "MEAN_MOTION_DDOT": 0}, "tle": {"line1": "1 66649U 25273C   25346.23587266  .00000085  00000+0  55421-3 0  9991", "line2": "2 66649  82.5043 286.7793 0006332 280.3600  79.6765 12.41150084  2075"}}, "geometry": {"type": "Point", "coordinates": [-80.98280218454849, -44.44539180701738]}}, {"type": "Feature", "properties": {"norad_id": 66650, "name": "BEE-1000", "group": "last-30-days", "lat": -21.83501839674529, "lon": 90.85331853258342, "alt_km": 593.4390136159063, "timestamp": "2025-12-12T18:57:42.886439+00:00", "meta": {"OBJECT_NAME": "BEE-1000", "OBJECT_ID": "2025-274A", "EPOCH": "2025-12-12T06:47:20.164992", "MEAN_MOTION": 14.91659686, "ECCENTRICITY": 0.00103671, "INCLINATION": 97.7386, "RA_OF_ASC_NODE": 273.4789, "ARG_OF_PERICENTER": 253.1002, "MEAN_ANOMALY": 106.908, "EPHEMERIS_TYPE": 0, "CLASSIFICATION_TYPE": "U", "NORAD_CAT_ID": 66650, "ELEMENT_SET_NO": 999, "REV_AT_EPOCH": 233, "BSTAR": 0.00032557311, "MEAN_MOTION_DOT": 3.219e-05, "MEAN_MOTION_DDOT": 0}, "tle": {"line1": "1 66650U 25274A   25346.28287228  .00003219  00000+0  32557-3 0  9991", "line2": "2 66650  97.7386 273.4789 0010367 253.1002 106.9080 14.91659686  2332"}}, "geometry": {"type": "Point", "coordinates": [90.85331853258342, -21.83501839674529]}}, {"type": "Feature", "properties": {"norad_id": 66651, "name": "2025-274B", "group": "last-30-days", "lat": -26.78077373897709, "lon": 90.04285197256239, "alt_km": 592.7331273030131, "timestamp": "2025-12-12T18:57:42.886449+00:00", "meta": {"OBJECT_NAME": "2025-274B", "OBJECT_ID": "2025-274B", "EPOCH": "2025-12-12T06:46:03.676800", "MEAN_MOTION": 14.91793861, "ECCENTRICITY": 0.00105918, "INCLINATION": 97.738, "RA_OF_ASC_NODE": 273.4793, "ARG_OF_PERICENTER": 252.1037, "MEAN_ANOMALY": 107.9028, "EPHEMERIS_TYPE": 0, "CLASSIFICATION_TYPE": "U", "NORAD_CAT_ID": 66651, "ELEMENT_SET_NO": 999, "REV_AT_EPOCH": 233, "BSTAR": 0.00067190686, "MEAN_MOTION_DOT": 6.73e-05, "MEAN_MOTION_DDOT": 0}, "tle": {"line1": "1 66651U 25274B   25346.28198700  .00006730  00000+0  67191-3 0  9991", "line2": "2 66651  97.7380 273.4793 0010591 252.1037 107.9028 14.91793861  2335"}}, "geometry": {"type": "Point", "coordinates": [90.04285197256239, -26.78077373897709]}}, {"type": "Feature", "properties": {"norad_id": 66652, "name": "2025-274C", "group": "last-30-days", "lat": -34.40354663240817, "lon": 88.63918162612022, "alt_km": 593.0326124576441, "timestamp": "2025-12-12T18:57:42.886459+00:00", "meta": {"OBJECT_NAME": "2025-274C", "OBJECT_ID": "2025-274C", "EPOCH": "2025-12-12T06:44:02.277024", "MEAN_MOTION": 14.91893997, "ECCENTRICITY": 0.00102548, "INCLINATION": 97.7384, "RA_OF_ASC_NODE": 273.4821, "ARG_OF_PERICENTER": 259.1477, "MEAN_ANOMALY": 100.8588, "EPHEMERIS_TYPE": 0, "CLASSIFICATION_TYPE": "U", "NORAD_CAT_ID": 66652, "ELEMENT_SET_NO": 999, "REV_AT_EPOCH": 233, "BSTAR": 0.0003930876, "MEAN_MOTION_DOT": 3.922e-05, "MEAN_MOTION_DDOT": 0}, "tle": {"line1": "1 66652U 25274C   25346.28058191  .00003922  00000+0  39309-3 0  9991", "line2": "2 66652  97.7384 273.4821 0010254 259.1477 100.8588 14.91893997  2337"}}, "geometry": {"type": "Point", "coordinates": [88.63918162612022, -34.40354663240817]}}, {"type": "Feature", "properties": {"norad_id": 66653, "name": "2025-274D", "group": "last-30-days", "lat": -34.7963210868967, "lon": 88.55988345533608, "alt_km": 592.1719439898261, "timestamp": "2025-12-12T18:57:42.886469+00:00", "meta": {"OBJECT_NAME": "2025-274D", "OBJECT_ID": "2025-274D", "EPOCH": "2025-12-12T06:43:56.026848", "MEAN_MOTION": 14.91903217, "ECCENTRICITY": 0.00111463, "INCLINATION": 97.7384, "RA_OF_ASC_NODE": 273.4819, "ARG_OF_PERICENTER": 255.0642, "MEAN_ANOMALY": 104.9343, "EPHEMERIS_TYPE": 0, "CLASSIFICATION_TYPE": "U", "NORAD_CAT_ID": 66653, "ELEMENT_SET_NO": 999, "REV_AT_EPOCH": 233, "BSTAR": 0.00047403777, "MEAN_MOTION_DOT": 4.744e-05, "MEAN_MOTION_DDOT": 0}, "tle": {"line1": "1 66653U 25274D   25346.28050957  .00004744  00000+0  47404-3 0  9992", "line2": "2 66653  97.7384 273.4819 0011146 255.0642 104.9343 14.91903217  2336"}}, "geometry": {"type": "Point", "coordinates": [88.55988345533608, -34.7963210868967]}}, {"type": "Feature", "properties": {"norad_id": 66654, "name": "JACK E", "group": "last-30-days", "lat": -44.36036844387419, "lon": 86.34472896263546, "alt_km": 591.0967243931227, "timestamp": "2025-12-12T18:57:42.886481+00:00", "meta": {"OBJECT_NAME": "JACK E", "OBJECT_ID": "2025-274E", "EPOCH": "2025-12-12T05:04:50.530080", "MEAN_MOTION": 14.92078144, "ECCENTRICITY": 0.00117599, "INCLINATION": 97.7387, "RA_OF_ASC_NODE": 273.4187, "ARG_OF_PERICENTER": 257.0683, "MEAN_ANOMALY": 102.9223, "EPHEMERIS_TYPE": 0, "CLASSIFICATION_TYPE": "U", "NORAD_CAT_ID": 66654, "ELEMENT_SET_NO": 999, "REV_AT_EPOCH": 232, "BSTAR": 0.00048666514, "MEAN_MOTION_DOT": 4.894e-05, "MEAN_MOTION_DDOT": 0}, "tle": {"line1": "1 66654U 25274E   25346.21169595  .00004894  00000+0  48667-3 0  9993", "line2": "2 66654  97.7387 273.4187 0011759 257.0683 102.9223 14.92078144  2322"}}, "geometry": {"type": "Point", "coordinates": [86.34472896263546, -44.36036844387419]}}, {"type": "Feature", "properties": {"norad_id": 66655, "name": "2025-274F", "group": "last-30-days", "lat": -49.753588721094495, "lon": 84.75009751856156, "alt_km": 603.1165183801431, "timestamp": "2025-12-12T18:57:42.886491+00:00", "meta": {"OBJECT_NAME": "2025-274F", "OBJECT_ID": "2025-274F", "EPOCH": "2025-12-10T14:24:20.623680", "MEAN_MOTION": 14.91412977, "ECCENTRICITY": 0.0004698, "INCLINATION": 97.7323, "RA_OF_ASC_NODE": 271.8405, "ARG_OF_PERICENTER": 22.2473, "MEAN_ANOMALY": 337.8948, "EPHEMERIS_TYPE": 0, "CLASSIFICATION_TYPE": "U", "NORAD_CAT_ID": 66655, "ELEMENT_SET_NO": 999, "REV_AT_EPOCH": 208, "BSTAR": 1.9321e-05, "MEAN_MOTION_DOT": 1.38e-06, "MEAN_MOTION_DDOT": 0}, "tle": {"line1": "1 66655U 25274F   25344.60023870  .00000138  00000+0  19321-4 0  9993", "line2": "2 66655  97.7323 271.8405 0004698  22.2473 337.8948 14.91412977  2082"}}, "geometry": {"type": "Point", "coordinates": [84.75009751856156, -49.753588721094495]}}, {"type": "Feature", "properties": {"norad_id": 66656, "name": "2025-274G", "group": "last-30-days", "lat": -54.77687330417419, "lon": 82.88636366890069, "alt_km": 589.8712025015166, "timestamp": "2025-12-12T18:57:42.886503+00:00", "meta": {"OBJECT_NAME": "2025-274G", "OBJECT_ID": "2025-274G", "EPOCH": "2025-12-12T06:38:38.774688", "MEAN_MOTION": 14.92269909, "ECCENTRICITY": 0.00123697, "INCLINATION": 97.7384, "RA_OF_ASC_NODE": 273.4867, "ARG_OF_PERICENTER": 258.6649, "MEAN_ANOMALY": 101.3181, "EPHEMERIS_TYPE": 0, "CLASSIFICATION_TYPE": "U", "NORAD_CAT_ID": 66656, "ELEMENT_SET_NO": 999, "REV_AT_EPOCH": 233, "BSTAR": 0.00052299282, "MEAN_MOTION_DOT": 5.29e-05, "MEAN_MOTION_DDOT": 0}, "tle": {"line1": "1 66656U 25274G   25346.27683767  .00005290  00000+0  52299-3 0  9990", "line2": "2 66656  97.7384 273.4867 0012369 258.6649 101.3181 14.92269909  2331"}}, "geometry": {"type": "Point", "coordinates": [82.88636366890069, -54.77687330417419]}}, {"type": "Feature", "properties": {"norad_id": 66657, "name": "SPIRONE", "group": "last-30-days", "lat": -64.73092128459908, "lon": 77.25291198090716, "alt_km": 591.0504599850929, "timestamp": "2025-12-12T18:57:42.886517+00:00", "meta": {"OBJECT_NAME": "SPIRONE", "OBJECT_ID": "2025-274H", "EPOCH": "2025-12-12T06:35:57.474528", "MEAN_MOTION": 14.92448984, "ECCENTRICITY": 0.00107358, "INCLINATION": 97.7381, "RA_OF_ASC_NODE": 273.4886, "ARG_OF_PERICENTER": 277.7668, "MEAN_ANOMALY": 82.2332, "EPHEMERIS_TYPE": 0, "CLASSIFICATION_TYPE": "U", "NORAD_CAT_ID": 66657, "ELEMENT_SET_NO": 999, "REV_AT_EPOCH": 233, "BSTAR": 0.0005122317, "MEAN_MOTION_DOT": 5.202e-05, "MEAN_MOTION_DDOT": 0}, "tle": {"line1": "1 66657U 25274H   25346.27497077  .00005202  00000+0  51223-3 0  9997", "line2": "2 66657  97.7381 273.4886 0010735 277.7668  82.2332 14.92448984  2335"}}, "geometry": {"type": "Point", "coordinates": [77.25291198090716, -64.73092128459908]}}, {"type": "Feature", "properties": {"norad_id": 66658, "name": "2025-274J", "group": "last-30-days", "lat": -73.98778368895036, "lon": 65.71671408881859, "alt_km": 589.8172947449939, "timestamp": "2025-12-12T18:57:42.886527+00:00", "meta": {"OBJECT_NAME": "2025-274J", "OBJECT_ID": "2025-274J", "EPOCH": "2025-12-12T06:33:20.285280", "MEAN_MOTION": 14.92619719, "ECCENTRICITY": 0.00113189, "INCLINATION": 97.7381, "RA_OF_ASC_NODE": 273.4912, "ARG_OF_PERICENTER": 280.6697, "MEAN_ANOMALY": 79.3247, "EPHEMERIS_TYPE": 0, "CLASSIFICATION_TYPE": "U", "NORAD_CAT_ID": 66658, "ELEMENT_SET_NO": 999, "REV_AT_EPOCH": 233, "BSTAR": 0.00048276309, "MEAN_MOTION_DOT": 4.921e-05, "MEAN_MOTION_DDOT": 0}, "tle": {"line1": "1 66658U 25274J   25346.27315145  .00004921  00000+0  48276-3 0  9994", "line2": "2 66658  97.7381 273.4912 0011318 280.6697  79.3247 14.92619719  2337"}}, "geometry": {"type": "Point", "coordinates": [65.71671408881859, -73.98778368895036]}}]}